1 36497U 97051WP  26110.96471696  .00004483  00000+0  81030-3 0  9992
2 36497  86.1560 193.5138 0046260  43.7048 316.7812 14.65505271675430
